start=new Date('2022-08-18T00:00:00.000Z').valueOf();
sats=[{"TIME_SYSTEM":"UTC","APOAPSIS":"548.222","OBJECT_TYPE":"PAYLOAD","COUNTRY_CODE":"US","SITE":"AFETR","EPHEMERIS_TYPE":"0","CENTER_NAME":"EARTH","TLE_LINE2":"2 45535  53.0546 184.4479 0001462  70.7437 289.3710 15.06401455129097","EPOCH":"2022-08-17T06:21:37.498176","CLASSIFICATION_TYPE":"U","ELEMENT_SET_NO":"999","LAUNCH_DATE":"2020-04-22","MEAN_MOTION_DDOT":"0.0000000000000","MEAN_MOTION":"15.06401455","SEMIMAJOR_AXIS":"6925.344","FILE":"3538809","REV_AT_EPOCH":"12909","TLE_LINE1":"1 45535U 20025E   22229.26501734  .00000773  00000-0  70760-4 0  9997","ARG_OF_PERICENTER":"70.7437","PERIAPSIS":"546.197","PERIOD":"95.592","MEAN_ANOMALY":"289.3710","DECAY_DATE":null,"RA_OF_ASC_NODE":"184.4479","MEAN_ELEMENT_THEORY":"SGP4","RCS_SIZE":"LARGE","INCLINATION":"53.0546","GP_ID":"210403783","OBJECT_ID":"2020-025E","MEAN_MOTION_DOT":"0.00000773","ECCENTRICITY":"0.00014620","REF_FRAME":"TEME","NORAD_CAT_ID":"45535","OBJECT_NAME":"STARLINK-1350","BSTAR":"0.00007076000000"},{"OBJECT_ID":"2020-025F","MEAN_MOTION_DOT":"0.00001139","GP_ID":"210402533","INCLINATION":"53.0544","ECCENTRICITY":"0.00014750","NORAD_CAT_ID":"45536","REF_FRAME":"TEME","BSTAR":"0.00009533300000","OBJECT_NAME":"STARLINK-1352","REV_AT_EPOCH":"12908","FILE":"3538809","MEAN_ANOMALY":"279.8431","PERIAPSIS":"546.201","ARG_OF_PERICENTER":"80.2725","PERIOD":"95.592","TLE_LINE1":"1 45536U 20025F   22229.26870620  .00001139  00000-0  95333-4 0  9991","DECAY_DATE":null,"RCS_SIZE":"LARGE","MEAN_ELEMENT_THEORY":"SGP4","RA_OF_ASC_NODE":"184.4353","LAUNCH_DATE":"2020-04-22","MEAN_MOTION_DDOT":"0.0000000000000","MEAN_MOTION":"15.06397201","SEMIMAJOR_AXIS":"6925.357","OBJECT_TYPE":"PAYLOAD","APOAPSIS":"548.244","TIME_SYSTEM":"UTC","SITE":"AFETR","COUNTRY_CODE":"US","EPHEMERIS_TYPE":"0","CENTER_NAME":"EARTH","CLASSIFICATION_TYPE":"U","ELEMENT_SET_NO":"999","EPOCH":"2022-08-17T06:26:56.215680","TLE_LINE2":"2 45536  53.0544 184.4353 0001475  80.2725 279.8431 15.06397201129083"},{"OBJECT_NAME":"STARLINK-1353","BSTAR":"0.00083812000000","REF_FRAME":"TEME","NORAD_CAT_ID":"45537","ECCENTRICITY":"0.00007330","GP_ID":"210402783","INCLINATION":"52.9754","MEAN_MOTION_DOT":"0.00021868","OBJECT_ID":"2020-025G","RA_OF_ASC_NODE":"130.9401","MEAN_ELEMENT_THEORY":"SGP4","RCS_SIZE":"LARGE","DECAY_DATE":null,"TLE_LINE1":"1 45537U 20025G   22229.03518903  .00021868  00000-0  83812-3 0  9999","ARG_OF_PERICENTER":"133.8715","PERIAPSIS":"485.876","PERIOD":"94.335","MEAN_ANOMALY":"226.2342","FILE":"3538809","REV_AT_EPOCH":"12978","SEMIMAJOR_AXIS":"6864.514","MEAN_MOTION":"15.26469249","MEAN_MOTION_DDOT":"0.0000000000000","LAUNCH_DATE":"2020-04-22","TLE_LINE2":"2 45537  52.9754 130.9401 0000733 133.8715 226.2342 15.26469249129783","EPOCH":"2022-08-17T00:50:40.332192","CLASSIFICATION_TYPE":"U","ELEMENT_SET_NO":"999","CENTER_NAME":"EARTH","EPHEMERIS_TYPE":"0","COUNTRY_CODE":"US","SITE":"AFETR","APOAPSIS":"486.882","TIME_SYSTEM":"UTC","OBJECT_TYPE":"PAYLOAD"},{"BSTAR":"0.00008002800000","OBJECT_NAME":"STARLINK-1362","NORAD_CAT_ID":"45538","REF_FRAME":"TEME","ECCENTRICITY":"0.00015400","MEAN_MOTION_DOT":"0.00000911","OBJECT_ID":"2020-025H","INCLINATION":"53.0549","GP_ID":"210403534","RCS_SIZE":"LARGE","MEAN_ELEMENT_THEORY":"SGP4","RA_OF_ASC_NODE":"184.3271","DECAY_DATE":null,"MEAN_ANOMALY":"299.4712","PERIAPSIS":"546.161","ARG_OF_PERICENTER":"60.6430","PERIOD":"95.592","TLE_LINE1":"1 45538U 20025H   22229.29450345  .00000911  00000-0  80028-4 0  9996","REV_AT_EPOCH":"12909","FILE":"3538809","SEMIMAJOR_AXIS":"6925.363","MEAN_MOTION":"15.06395427","MEAN_MOTION_DDOT":"0.0000000000000","LAUNCH_DATE":"2020-04-22","ELEMENT_SET_NO":"999","CLASSIFICATION_TYPE":"U","TLE_LINE2":"2 45538  53.0549 184.3271 0001540  60.6430 299.4712 15.06395427129095","EPOCH":"2022-08-17T07:04:05.098080","CENTER_NAME":"EARTH","EPHEMERIS_TYPE":"0","SITE":"AFETR","COUNTRY_CODE":"US","OBJECT_TYPE":"PAYLOAD","APOAPSIS":"548.294","TIME_SYSTEM":"UTC"},{"SEMIMAJOR_AXIS":"6925.355","MEAN_MOTION":"15.06397971","MEAN_MOTION_DDOT":"0.0000000000000","LAUNCH_DATE":"2020-04-22","TLE_LINE2":"2 45540  53.0556 184.4284 0001689  72.8055 287.3119 15.06397971129085","EPOCH":"2022-08-17T06:32:14.744832","ELEMENT_SET_NO":"999","CLASSIFICATION_TYPE":"U","EPHEMERIS_TYPE":"0","CENTER_NAME":"EARTH","COUNTRY_CODE":"US","SITE":"AFETR","TIME_SYSTEM":"UTC","APOAPSIS":"548.389","OBJECT_TYPE":"PAYLOAD","BSTAR":"0.00007022800000","OBJECT_NAME":"STARLINK-1368","REF_FRAME":"TEME","NORAD_CAT_ID":"45540","ECCENTRICITY":"0.00016890","GP_ID":"210404283","INCLINATION":"53.0556","OBJECT_ID":"2020-025K","MEAN_MOTION_DOT":"0.00000765","RA_OF_ASC_NODE":"184.4284","RCS_SIZE":"LARGE","MEAN_ELEMENT_THEORY":"SGP4","DECAY_DATE":null,"PERIOD":"95.592","PERIAPSIS":"546.050","ARG_OF_PERICENTER":"72.8055","TLE_LINE1":"1 45540U 20025K   22229.27239288  .00000765  00000-0  70228-4 0  9996","MEAN_ANOMALY":"287.3119","REV_AT_EPOCH":"12908","FILE":"3538809"},{"ELEMENT_SET_NO":"999","CLASSIFICATION_TYPE":"U","EPOCH":"2022-08-17T06:37:32.339136","TLE_LINE2":"2 45541  53.0557 184.4022 0001800  71.6934 288.4251 15.06407001129080","CENTER_NAME":"EARTH","EPHEMERIS_TYPE":"0","SITE":"AFETR","COUNTRY_CODE":"US","OBJECT_TYPE":"PAYLOAD","TIME_SYSTEM":"UTC","APOAPSIS":"548.439","SEMIMAJOR_AXIS":"6925.327","MEAN_MOTION":"15.06407001","MEAN_MOTION_DDOT":"0.0000000000000","LAUNCH_DATE":"2020-04-22","MEAN_ELEMENT_THEORY":"SGP4","RCS_SIZE":"LARGE","RA_OF_ASC_NODE":"184.4022","DECAY_DATE":null,"MEAN_ANOMALY":"288.4251","TLE_LINE1":"1 45541U 20025L   22229.27606874 -.00001207  00000-0 -62152-4 0  9997","PERIOD":"95.592","PERIAPSIS":"545.946","ARG_OF_PERICENTER":"71.6934","FILE":"3538809","REV_AT_EPOCH":"12908","OBJECT_NAME":"STARLINK-1369","BSTAR":"-0.00006215200000","NORAD_CAT_ID":"45541","REF_FRAME":"TEME","ECCENTRICITY":"0.00018000","MEAN_MOTION_DOT":"-0.00001207","OBJECT_ID":"2020-025L","GP_ID":"210403033","INCLINATION":"53.0557"},{"MEAN_MOTION":"15.06395309","SEMIMAJOR_AXIS":"6925.363","LAUNCH_DATE":"2020-04-22","MEAN_MOTION_DDOT":"0.0000000000000","EPHEMERIS_TYPE":"0","CENTER_NAME":"EARTH","CLASSIFICATION_TYPE":"U","ELEMENT_SET_NO":"999","TLE_LINE2":"2 45542  53.0549 185.1602 0001664  68.7175 291.3992 15.06395309129066","EPOCH":"2022-08-17T02:38:42.080928","OBJECT_TYPE":"PAYLOAD","TIME_SYSTEM":"UTC","APOAPSIS":"548.380","SITE":"AFETR","COUNTRY_CODE":"US","NORAD_CAT_ID":"45542","REF_FRAME":"TEME","BSTAR":"0.00006409200000","OBJECT_NAME":"STARLINK-1371","MEAN_MOTION_DOT":"0.00000673","OBJECT_ID":"2020-025M","GP_ID":"210403283","INCLINATION":"53.0549","ECCENTRICITY":"0.00016640","DECAY_DATE":null,"RCS_SIZE":"LARGE","MEAN_ELEMENT_THEORY":"SGP4","RA_OF_ASC_NODE":"185.1602","REV_AT_EPOCH":"12906","FILE":"3538809","MEAN_ANOMALY":"291.3992","PERIAPSIS":"546.076","PERIOD":"95.592","ARG_OF_PERICENTER":"68.7175","TLE_LINE1":"1 45542U 20025M   22229.11020927  .00000673  00000-0  64092-4 0  9999"},{"EPHEMERIS_TYPE":"0","CENTER_NAME":"EARTH","CLASSIFICATION_TYPE":"U","ELEMENT_SET_NO":"999","EPOCH":"2022-08-17T06:42:51.142176","TLE_LINE2":"2 45543  53.0532 184.3933 0001628  74.0393 286.0775 15.06405792128189","OBJECT_TYPE":"PAYLOAD","TIME_SYSTEM":"UTC","APOAPSIS":"548.323","SITE":"AFETR","COUNTRY_CODE":"US","MEAN_MOTION":"15.06405792","SEMIMAJOR_AXIS":"6925.331","LAUNCH_DATE":"2020-04-22","MEAN_MOTION_DDOT":"0.0000000000000","DECAY_DATE":null,"MEAN_ELEMENT_THEORY":"SGP4","RCS_SIZE":"LARGE","RA_OF_ASC_NODE":"184.3933","FILE":"3538809","REV_AT_EPOCH":"12818","MEAN_ANOMALY":"286.0775","TLE_LINE1":"1 45543U 20025N   22229.27975859  .00000905  00000-0  79624-4 0  9995","ARG_OF_PERICENTER":"74.0393","PERIAPSIS":"546.068","PERIOD":"95.592","NORAD_CAT_ID":"45543","REF_FRAME":"TEME","OBJECT_NAME":"STARLINK-1372","BSTAR":"0.00007962400000","OBJECT_ID":"2020-025N","MEAN_MOTION_DOT":"0.00000905","GP_ID":"210404033","INCLINATION":"53.0532","ECCENTRICITY":"0.00016280"},{"CENTER_NAME":"EARTH","EPHEMERIS_TYPE":"0","ELEMENT_SET_NO":"999","CLASSIFICATION_TYPE":"U","EPOCH":"2022-08-17T03:58:18.701472","TLE_LINE2":"2 45544  53.0554 184.9080 0001603  84.0729 276.0442 15.06403532129079","OBJECT_TYPE":"PAYLOAD","APOAPSIS":"548.313","TIME_SYSTEM":"UTC","SITE":"AFETR","COUNTRY_CODE":"US","MEAN_MOTION":"15.06403532","SEMIMAJOR_AXIS":"6925.338","LAUNCH_DATE":"2020-04-22","MEAN_MOTION_DDOT":"0.0000000000000","DECAY_DATE":null,"MEAN_ELEMENT_THEORY":"SGP4","RCS_SIZE":"LARGE","RA_OF_ASC_NODE":"184.9080","FILE":"3538809","REV_AT_EPOCH":"12907","MEAN_ANOMALY":"276.0442","TLE_LINE1":"1 45544U 20025P   22229.16549423  .00000174  00000-0  30597-4 0  9992","PERIOD":"95.592","PERIAPSIS":"546.093","ARG_OF_PERICENTER":"84.0729","NORAD_CAT_ID":"45544","REF_FRAME":"TEME","OBJECT_NAME":"STARLINK-1373","BSTAR":"0.00003059700000","MEAN_MOTION_DOT":"0.00000174","OBJECT_ID":"2020-025P","GP_ID":"210403784","INCLINATION":"53.0554","ECCENTRICITY":"0.00016030"},{"OBJECT_TYPE":"PAYLOAD","APOAPSIS":"548.695","TIME_SYSTEM":"UTC","SITE":"AFETR","COUNTRY_CODE":"US","EPHEMERIS_TYPE":"0","CENTER_NAME":"EARTH","CLASSIFICATION_TYPE":"U","ELEMENT_SET_NO":"999","EPOCH":"2022-08-17T07:35:56.292000","TLE_LINE2":"2 45545  53.0556 184.2191 0002107  62.2091 297.9111 15.06392725129074","LAUNCH_DATE":"2020-04-22","MEAN_MOTION_DDOT":"0.0000000000000","MEAN_MOTION":"15.06392725","SEMIMAJOR_AXIS":"6925.371","FILE":"3538809","REV_AT_EPOCH":"12907","MEAN_ANOMALY":"297.9111","TLE_LINE1":"1 45545U 20025Q   22229.31662375  .00001282  00000-0  10495-3 0  9997","PERIOD":"95.593","PERIAPSIS":"545.777","ARG_OF_PERICENTER":"62.2091","DECAY_DATE":null,"MEAN_ELEMENT_THEORY":"SGP4","RCS_SIZE":"LARGE","RA_OF_ASC_NODE":"184.2191","OBJECT_ID":"2020-025Q","MEAN_MOTION_DOT":"0.00001282","INCLINATION":"53.0556","GP_ID":"210402534","ECCENTRICITY":"0.00021070","NORAD_CAT_ID":"45545","REF_FRAME":"TEME","OBJECT_NAME":"STARLINK-1374","BSTAR":"0.00010495000000"}];
